{
  "type": "FeatureCollection",
  "features": [
    {
      "type": "Feature",
      "properties": {
        "norad_id": 51444,
        "name": "CSG-2",
        "group": "resource",
        "lat": 18.02858446940202,
        "lon": 157.51924060832965,
        "alt_km": 622.5892922963912,
        "timestamp": "2025-12-04T15:47:53.753913+00:00",
        "meta_object_name": "CSG-2",
        "meta_object_id": "2022-008A",
        "meta_epoch": "2025-12-04T07:36:54.312192",
        "meta_mean_motion": 14.82151028,
        "meta_eccentricity": 0.00014814,
        "meta_inclination": 97.8807,
        "meta_ra_of_asc_node": 159.7674,
        "meta_arg_of_pericenter": 89.1423,
        "meta_mean_anomaly": 270.996,
        "meta_ephemeris_type": 0,
        "meta_classification_type": "U",
        "meta_norad_cat_id": 51444,
        "meta_element_set_no": 999,
        "meta_rev_at_epoch": 20772,
        "meta_bstar": 0.00014542205,
        "meta_mean_motion_dot": 1.106e-05,
        "meta_mean_motion_ddot": 0,
        "tle_line1": "1 51444U 22008A   25338.31729528  .00001106  00000+0  14542-3 0  9994",
        "tle_line2": "2 51444  97.8807 159.7674 0001481  89.1423 270.9960 14.82151028207722"
      },
      "geometry": {
        "type": "Point",
        "coordinates": [
          157.51924060832965,
          18.02858446940202
        ]
      }
    },
    {
      "type": "Feature",
      "properties": {
        "norad_id": 52912,
        "name": "GAOFEN-12 03",
        "group": "resource",
        "lat": 9.123535339390537,
        "lon": -135.0758700105658,
        "alt_km": 631.7152647901585,
        "timestamp": "2025-12-04T15:47:53.753924+00:00",
        "meta_object_name": "GAOFEN-12 03",
        "meta_object_id": "2022-069A",
        "meta_epoch": "2025-12-04T07:38:29.034240",
        "meta_mean_motion": 14.79577794,
        "meta_eccentricity": 0.00023233,
        "meta_inclination": 97.8489,
        "meta_ra_of_asc_node": 225.8616,
        "meta_arg_of_pericenter": 75.251,
        "meta_mean_anomaly": 284.8959,
        "meta_ephemeris_type": 0,
        "meta_classification_type": "U",
        "meta_norad_cat_id": 52912,
        "meta_element_set_no": 999,
        "meta_rev_at_epoch": 18579,
        "meta_bstar": 0.00037013089,
        "meta_mean_motion_dot": 2.721e-05,
        "meta_mean_motion_ddot": 0,
        "tle_line1": "1 52912U 22069A   25338.31839160  .00002721  00000+0  37013-3 0  9998",
        "tle_line2": "2 52912  97.8489 225.8616 0002323  75.2510 284.8959 14.79577794185791"
      },
      "geometry": {
        "type": "Point",
        "coordinates": [
          -135.0758700105658,
          9.123535339390537
        ]
      }
    },
    {
      "type": "Feature",
      "properties": {
        "norad_id": 54754,
        "name": "SWOT",
        "group": "resource",
        "lat": 49.409146285961334,
        "lon": 103.03420857081613,
        "alt_km": 888.2847785833883,
        "timestamp": "2025-12-04T15:47:53.753934+00:00",
        "meta_object_name": "SWOT",
        "meta_object_id": "2022-173A",
        "meta_epoch": "2025-12-04T06:36:37.064736",
        "meta_mean_motion": 14.00172757,
        "meta_eccentricity": 3.277e-05,
        "meta_inclination": 77.6099,
        "meta_ra_of_asc_node": 298.4164,
        "meta_arg_of_pericenter": 139.1595,
        "meta_mean_anomaly": 220.9581,
        "meta_ephemeris_type": 0,
        "meta_classification_type": "U",
        "meta_norad_cat_id": 54754,
        "meta_element_set_no": 999,
        "meta_rev_at_epoch": 15187,
        "meta_bstar": 9.8264019e-05,
        "meta_mean_motion_dot": 1.42e-06,
        "meta_mean_motion_ddot": 0,
        "tle_line1": "1 54754U 22173A   25338.27542899  .00000142  00000+0  98264-4 0  9996",
        "tle_line2": "2 54754  77.6099 298.4164 0000327 139.1595 220.9581 14.00172757151877"
      },
      "geometry": {
        "type": "Point",
        "coordinates": [
          103.03420857081613,
          49.409146285961334
        ]
      }
    },
    {
      "type": "Feature",
      "properties": {
        "norad_id": 57654,
        "name": "GAOFEN-12 04",
        "group": "resource",
        "lat": 3.4667213659469502,
        "lon": 75.02100159782643,
        "alt_km": 633.1925654757842,
        "timestamp": "2025-12-04T15:47:53.753945+00:00",
        "meta_object_name": "GAOFEN-12 04",
        "meta_object_id": "2023-123A",
        "meta_epoch": "2025-12-04T08:30:42.733728",
        "meta_mean_motion": 14.79661596,
        "meta_eccentricity": 0.00014493,
        "meta_inclination": 97.9118,
        "meta_ra_of_asc_node": 254.2394,
        "meta_arg_of_pericenter": 73.1267,
        "meta_mean_anomaly": 287.0103,
        "meta_ephemeris_type": 0,
        "meta_classification_type": "U",
        "meta_norad_cat_id": 57654,
        "meta_element_set_no": 999,
        "meta_rev_at_epoch": 12381,
        "meta_bstar": 0.00045315104,
        "meta_mean_motion_dot": 3.35e-05,
        "meta_mean_motion_ddot": 0,
        "tle_line1": "1 57654U 23123A   25338.35466127  .00003350  00000+0  45315-3 0  9994",
        "tle_line2": "2 57654  97.9118 254.2394 0001449  73.1267 287.0103 14.79661596123817"
      },
      "geometry": {
        "type": "Point",
        "coordinates": [
          75.02100159782643,
          3.4667213659469502
        ]
      }
    },
    {
      "type": "Feature",
      "properties": {
        "norad_id": 59065,
        "name": "PARS 1",
        "group": "resource",
        "lat": -56.08604274409014,
        "lon": 118.18054432477554,
        "alt_km": 457.8635188011958,
        "timestamp": "2025-12-04T15:47:53.753955+00:00",
        "meta_object_name": "PARS 1",
        "meta_object_id": "2024-039Q",
        "meta_epoch": "2025-12-04T06:58:51.593952",
        "meta_mean_motion": 15.40689077,
        "meta_eccentricity": 0.00126928,
        "meta_inclination": 97.4619,
        "meta_ra_of_asc_node": 309.0473,
        "meta_arg_of_pericenter": 97.0246,
        "meta_mean_anomaly": 263.2444,
        "meta_ephemeris_type": 0,
        "meta_classification_type": "U",
        "meta_norad_cat_id": 59065,
        "meta_element_set_no": 999,
        "meta_rev_at_epoch": 9858,
        "meta_bstar": 0.00055313225,
        "meta_mean_motion_dot": 0.00022589,
        "meta_mean_motion_ddot": 0,
        "tle_line1": "1 59065U 24039Q   25338.29087493  .00022589  00000+0  55313-3 0  9991",
        "tle_line2": "2 59065  97.4619 309.0473 0012692  97.0246 263.2444 15.40689077 98589"
      },
      "geometry": {
        "type": "Point",
        "coordinates": [
          118.18054432477554,
          -56.08604274409014
        ]
      }
    },
    {
      "type": "Feature",
      "properties": {
        "norad_id": 59371,
        "name": "RESURS-P 4",
        "group": "resource",
        "lat": -81.44749405863779,
        "lon": -16.96889739758194,
        "alt_km": 478.351726789263,
        "timestamp": "2025-12-04T15:47:53.753966+00:00",
        "meta_object_name": "RESURS-P 4",
        "meta_object_id": "2024-061A",
        "meta_epoch": "2025-12-04T08:19:58.370304",
        "meta_mean_motion": 15.31983468,
        "meta_eccentricity": 0.00021027,
        "meta_inclination": 97.2533,
        "meta_ra_of_asc_node": 284.8499,
        "meta_arg_of_pericenter": 55.4175,
        "meta_mean_anomaly": 304.7265,
        "meta_ephemeris_type": 0,
        "meta_classification_type": "U",
        "meta_norad_cat_id": 59371,
        "meta_element_set_no": 999,
        "meta_rev_at_epoch": 9392,
        "meta_bstar": 0.00027118447,
        "meta_mean_motion_dot": 8.3e-05,
        "meta_mean_motion_ddot": 0,
        "tle_line1": "1 59371U 24061A   25338.34720336  .00008300  00000+0  27118-3 0  9999",
        "tle_line2": "2 59371  97.2533 284.8499 0002102  55.4175 304.7265 15.31983468 93920"
      },
      "geometry": {
        "type": "Point",
        "coordinates": [
          -16.96889739758194,
          -81.44749405863779
        ]
      }
    },
    {
      "type": "Feature",
      "properties": {
        "norad_id": 59625,
        "name": "LEGION 1",
        "group": "resource",
        "lat": -52.479980582638056,
        "lon": -136.5435087705653,
        "alt_km": 525.326022230297,
        "timestamp": "2025-12-04T15:47:53.753976+00:00",
        "meta_object_name": "LEGION 1",
        "meta_object_id": "2024-081A",
        "meta_epoch": "2025-12-04T06:51:16.367040",
        "meta_mean_motion": 15.16350065,
        "meta_eccentricity": 0.00046272,
        "meta_inclination": 97.5231,
        "meta_ra_of_asc_node": 52.9971,
        "meta_arg_of_pericenter": 351.5444,
        "meta_mean_anomaly": 8.571,
        "meta_ephemeris_type": 0,
        "meta_classification_type": "U",
        "meta_norad_cat_id": 59625,
        "meta_element_set_no": 999,
        "meta_rev_at_epoch": 8799,
        "meta_bstar": 0.00059168251,
        "meta_mean_motion_dot": 0.00011422,
        "meta_mean_motion_ddot": 0,
        "tle_line1": "1 59625U 24081A   25338.28560610  .00011422  00000+0  59168-3 0  9992",
        "tle_line2": "2 59625  97.5231  52.9971 0004627 351.5444   8.5710 15.16350065 87990"
      },
      "geometry": {
        "type": "Point",
        "coordinates": [
          -136.5435087705653,
          -52.479980582638056
        ]
      }
    }
  ]
}